{
  "type": "FeatureCollection",
  "features": [
    {
      "type": "Feature",
      "properties": {
        "norad_id": 33633,
        "name": "FENGYUN 1C DEB",
        "group": "fengyun-1c-debris",
        "lat": -62.05081663460759,
        "lon": 91.43390398114529,
        "alt_km": 871.0100630158404,
        "timestamp": "2025-12-05T19:30:25.852357+00:00",
        "meta_object_name": "FENGYUN 1C DEB",
        "meta_object_id": "1999-025DDS",
        "meta_epoch": "2025-12-04T05:02:36.311136",
        "meta_mean_motion": 14.19195748,
        "meta_eccentricity": 0.0084138,
        "meta_inclination": 99.0589,
        "meta_ra_of_asc_node": 72.2967,
        "meta_arg_of_pericenter": 174.4266,
        "meta_mean_anomaly": 217.7166,
        "meta_ephemeris_type": 0,
        "meta_classification_type": "U",
        "meta_norad_cat_id": 33633,
        "meta_element_set_no": 999,
        "meta_rev_at_epoch": 90590,
        "meta_bstar": 0.0055559,
        "meta_mean_motion_dot": 0.00012029,
        "meta_mean_motion_ddot": 0,
        "tle_line1": "1 33633U 99025DDS 25338.21014249  .00012029  00000+0  55559-2 0  9991",
        "tle_line2": "2 33633  99.0589  72.2967 0084138 174.4266 217.7166 14.19195748905909"
      },
      "geometry": {
        "type": "Point",
        "coordinates": [
          91.43390398114529,
          -62.05081663460759
        ]
      }
    },
    {
      "type": "Feature",
      "properties": {
        "norad_id": 33637,
        "name": "FENGYUN 1C DEB",
        "group": "fengyun-1c-debris",
        "lat": 75.20300968880106,
        "lon": -120.65593249115669,
        "alt_km": 741.3715734725538,
        "timestamp": "2025-12-05T19:30:25.852367+00:00",
        "meta_object_name": "FENGYUN 1C DEB",
        "meta_object_id": "1999-025DDW",
        "meta_epoch": "2025-12-02T20:49:29.953920",
        "meta_mean_motion": 14.36621291,
        "meta_eccentricity": 0.00830408,
        "meta_inclination": 98.4948,
        "meta_ra_of_asc_node": 21.982,
        "meta_arg_of_pericenter": 180.571,
        "meta_mean_anomaly": 179.5395,
        "meta_ephemeris_type": 0,
        "meta_classification_type": "U",
        "meta_norad_cat_id": 33637,
        "meta_element_set_no": 999,
        "meta_rev_at_epoch": 64696,
        "meta_bstar": 0.0016160218,
        "meta_mean_motion_dot": 4.904e-05,
        "meta_mean_motion_ddot": 0,
        "tle_line1": "1 33637U 99025DDW 25336.86770780  .00004904  00000+0  16160-2 0  9991",
        "tle_line2": "2 33637  98.4948  21.9820 0083040 180.5710 179.5395 14.36621291646960"
      },
      "geometry": {
        "type": "Point",
        "coordinates": [
          -120.65593249115669,
          75.20300968880106
        ]
      }
    },
    {
      "type": "Feature",
      "properties": {
        "norad_id": 33638,
        "name": "FENGYUN 1C DEB",
        "group": "fengyun-1c-debris",
        "lat": 64.88938095486164,
        "lon": 69.85777174894311,
        "alt_km": 1191.689165523865,
        "timestamp": "2025-12-05T19:30:25.852378+00:00",
        "meta_object_name": "FENGYUN 1C DEB",
        "meta_object_id": "1999-025DDX",
        "meta_epoch": "2025-12-03T23:05:51.785952",
        "meta_mean_motion": 13.69271016,
        "meta_eccentricity": 0.02656163,
        "meta_inclination": 98.4648,
        "meta_ra_of_asc_node": 229.7029,
        "meta_arg_of_pericenter": 296.4816,
        "meta_mean_anomaly": 60.9313,
        "meta_ephemeris_type": 0,
        "meta_classification_type": "U",
        "meta_norad_cat_id": 33638,
        "meta_element_set_no": 999,
        "meta_rev_at_epoch": 60795,
        "meta_bstar": 0.0027654295,
        "meta_mean_motion_dot": 3.035e-05,
        "meta_mean_motion_ddot": 0,
        "tle_line1": "1 33638U 99025DDX 25337.96240493  .00003035  00000+0  27654-2 0  9991",
        "tle_line2": "2 33638  98.4648 229.7029 0265616 296.4816  60.9313 13.69271016607952"
      },
      "geometry": {
        "type": "Point",
        "coordinates": [
          69.85777174894311,
          64.88938095486164
        ]
      }
    },
    {
      "type": "Feature",
      "properties": {
        "norad_id": 33639,
        "name": "FENGYUN 1C DEB",
        "group": "fengyun-1c-debris",
        "lat": 80.02789149265983,
        "lon": 9.946230683581904,
        "alt_km": 775.0500807440385,
        "timestamp": "2025-12-05T19:30:25.852388+00:00",
        "meta_object_name": "FENGYUN 1C DEB",
        "meta_object_id": "1999-025DDY",
        "meta_epoch": "2025-12-03T23:45:48.189312",
        "meta_mean_motion": 14.40248408,
        "meta_eccentricity": 0.00493059,
        "meta_inclination": 98.7136,
        "meta_ra_of_asc_node": 68.813,
        "meta_arg_of_pericenter": 315.1865,
        "meta_mean_anomaly": 44.5345,
        "meta_ephemeris_type": 0,
        "meta_classification_type": "U",
        "meta_norad_cat_id": 33639,
        "meta_element_set_no": 999,
        "meta_rev_at_epoch": 60456,
        "meta_bstar": 0.0043899516,
        "meta_mean_motion_dot": 0.00014079,
        "meta_mean_motion_ddot": 0,
        "tle_line1": "1 33639U 99025DDY 25337.99014108  .00014079  00000+0  43900-2 0  9999",
        "tle_line2": "2 33639  98.7136  68.8130 0049305 315.1865  44.5345 14.40248408604567"
      },
      "geometry": {
        "type": "Point",
        "coordinates": [
          9.946230683581904,
          80.02789149265983
        ]
      }
    },
    {
      "type": "Feature",
      "properties": {
        "norad_id": 33640,
        "name": "FENGYUN 1C DEB",
        "group": "fengyun-1c-debris",
        "lat": 44.72219060664818,
        "lon": 111.14052642279503,
        "alt_km": 690.4216728683505,
        "timestamp": "2025-12-05T19:30:25.852398+00:00",
        "meta_object_name": "FENGYUN 1C DEB",
        "meta_object_id": "1999-025DDZ",
        "meta_epoch": "2025-12-03T07:05:28.612320",
        "meta_mean_motion": 14.45839064,
        "meta_eccentricity": 0.0090224,
        "meta_inclination": 98.8397,
        "meta_ra_of_asc_node": 279.6527,
        "meta_arg_of_pericenter": 187.9822,
        "meta_mean_anomaly": 171.9938,
        "meta_ephemeris_type": 0,
        "meta_classification_type": "U",
        "meta_norad_cat_id": 33640,
        "meta_element_set_no": 999,
        "meta_rev_at_epoch": 92206,
        "meta_bstar": 0.00071385,
        "meta_mean_motion_dot": 2.614e-05,
        "meta_mean_motion_ddot": 0,
        "tle_line1": "1 33640U 99025DDZ 25337.29547005  .00002614  00000+0  71385-3 0  9992",
        "tle_line2": "2 33640  98.8397 279.6527 0090224 187.9822 171.9938 14.45839064922065"
      },
      "geometry": {
        "type": "Point",
        "coordinates": [
          111.14052642279503,
          44.72219060664818
        ]
      }
    },
    {
      "type": "Feature",
      "properties": {
        "norad_id": 33648,
        "name": "FENGYUN 1C DEB",
        "group": "fengyun-1c-debris",
        "lat": -10.885000568029715,
        "lon": 157.003294436725,
        "alt_km": 808.1601824606623,
        "timestamp": "2025-12-05T19:30:25.852408+00:00",
        "meta_object_name": "FENGYUN 1C DEB",
        "meta_object_id": "1999-025DEH",
        "meta_epoch": "2025-12-01T19:21:03.618432",
        "meta_mean_motion": 14.11767445,
        "meta_eccentricity": 0.00683547,
        "meta_inclination": 98.7193,
        "meta_ra_of_asc_node": 334.8003,
        "meta_arg_of_pericenter": 205.3153,
        "meta_mean_anomaly": 154.4664,
        "meta_ephemeris_type": 0,
        "meta_classification_type": "U",
        "meta_norad_cat_id": 33648,
        "meta_element_set_no": 999,
        "meta_rev_at_epoch": 64222,
        "meta_bstar": 0.00013911279,
        "meta_mean_motion_dot": 2.16e-06,
        "meta_mean_motion_ddot": 0,
        "tle_line1": "1 33648U 99025DEH 25335.80629188  .00000216  00000+0  13911-3 0  9995",
        "tle_line2": "2 33648  98.7193 334.8003 0068354 205.3153 154.4664 14.11767445642225"
      },
      "geometry": {
        "type": "Point",
        "coordinates": [
          157.003294436725,
          -10.885000568029715
        ]
      }
    },
    {
      "type": "Feature",
      "properties": {
        "norad_id": 33650,
        "name": "FENGYUN 1C DEB",
        "group": "fengyun-1c-debris",
        "lat": 4.500357459820405,
        "lon": -34.164112394303984,
        "alt_km": 908.0334600649958,
        "timestamp": "2025-12-05T19:30:25.852418+00:00",
        "meta_object_name": "FENGYUN 1C DEB",
        "meta_object_id": "1999-025DEK",
        "meta_epoch": "2025-11-29T05:22:43.300128",
        "meta_mean_motion": 13.89153147,
        "meta_eccentricity": 0.01505018,
        "meta_inclination": 98.9878,
        "meta_ra_of_asc_node": 138.7642,
        "meta_arg_of_pericenter": 115.9177,
        "meta_mean_anomaly": 245.7581,
        "meta_ephemeris_type": 0,
        "meta_classification_type": "U",
        "meta_norad_cat_id": 33650,
        "meta_element_set_no": 999,
        "meta_rev_at_epoch": 68621,
        "meta_bstar": 0.00077422425,
        "meta_mean_motion_dot": 9.89e-06,
        "meta_mean_motion_ddot": 0,
        "tle_line1": "1 33650U 99025DEK 25333.22411227  .00000989  00000+0  77422-3 0  9999",
        "tle_line2": "2 33650  98.9878 138.7642 0150501 115.9177 245.7581 13.89153147686219"
      },
      "geometry": {
        "type": "Point",
        "coordinates": [
          -34.164112394303984,
          4.500357459820405
        ]
      }
    }
  ]
}